start=new Date('2022-05-22T00:00:00.000Z').valueOf();
sats=[{"REV_AT_EPOCH":"130","DECAY_DATE":null,"COUNTRY_CODE":"US","INCLINATION":"53.2176","PERIAPSIS":"336.736","MEAN_MOTION_DDOT":"0.0000000000000","OBJECT_TYPE":"PAYLOAD","EPOCH":"2022-05-21T22:00:00.999936","RA_OF_ASC_NODE":"44.6252","TLE_LINE2":"2 52599  53.2176  44.6252 0001074  89.2756 214.0041 15.77525141  1302","MEAN_MOTION_DOT":"-0.00876521","CENTER_NAME":"EARTH","MEAN_ELEMENT_THEORY":"SGP4","ELEMENT_SET_NO":"999","SITE":"AFETR","MEAN_ANOMALY":"214.0041","ECCENTRICITY":"0.00010740","REF_FRAME":"TEME","SEMIMAJOR_AXIS":"6715.592","GP_ID":"204195576","CLASSIFICATION_TYPE":"U","PERIOD":"91.282","NORAD_CAT_ID":"52599","TIME_SYSTEM":"UTC","OBJECT_ID":"2022-052B","ARG_OF_PERICENTER":"89.2756","BSTAR":"-0.00572140000000","EPHEMERIS_TYPE":"0","APOAPSIS":"338.178","FILE":"3457577","MEAN_MOTION":"15.77525141","LAUNCH_DATE":"2022-05-14","RCS_SIZE":null,"OBJECT_NAME":"STARLINK-4024","TLE_LINE1":"1 52599U 22052B   22141.91667824 -.00876521  00000-0 -57214-2 0  9996"},{"GP_ID":"204195781","ECCENTRICITY":"0.00010720","REF_FRAME":"TEME","SEMIMAJOR_AXIS":"6715.422","PERIOD":"91.279","CLASSIFICATION_TYPE":"U","NORAD_CAT_ID":"52600","OBJECT_ID":"2022-052C","TIME_SYSTEM":"UTC","ARG_OF_PERICENTER":"93.7208","BSTAR":"-0.00570530000000","EPHEMERIS_TYPE":"0","RCS_SIZE":null,"OBJECT_NAME":"STARLINK-4026","TLE_LINE1":"1 52600U 22052C   22141.91667824 -.00876422  00000-0 -57053-2 0  9990","APOAPSIS":"338.007","FILE":"3457577","MEAN_MOTION":"15.77584972","LAUNCH_DATE":"2022-05-14","PERIAPSIS":"336.567","MEAN_MOTION_DDOT":"0.0000000000000","REV_AT_EPOCH":"130","DECAY_DATE":null,"COUNTRY_CODE":"US","INCLINATION":"53.2176","EPOCH":"2022-05-21T22:00:00.999936","RA_OF_ASC_NODE":"44.6232","TLE_LINE2":"2 52600  53.2176  44.6232 0001072  93.7208 210.8501 15.77584972  1305","OBJECT_TYPE":"PAYLOAD","MEAN_ELEMENT_THEORY":"SGP4","MEAN_MOTION_DOT":"-0.00876422","CENTER_NAME":"EARTH","SITE":"AFETR","MEAN_ANOMALY":"210.8501","ELEMENT_SET_NO":"999"},{"ELEMENT_SET_NO":"999","MEAN_ANOMALY":"228.8816","SITE":"AFETR","CENTER_NAME":"EARTH","MEAN_MOTION_DOT":"-0.00876742","MEAN_ELEMENT_THEORY":"SGP4","OBJECT_TYPE":"PAYLOAD","TLE_LINE2":"2 52601  53.2176  44.6244 0001087  74.8294 228.8816 15.77545211  1301","RA_OF_ASC_NODE":"44.6244","EPOCH":"2022-05-21T22:00:00.999936","INCLINATION":"53.2176","COUNTRY_CODE":"US","DECAY_DATE":null,"REV_AT_EPOCH":"130","MEAN_MOTION_DDOT":"0.0000000000000","PERIAPSIS":"336.670","LAUNCH_DATE":"2022-05-14","FILE":"3457577","MEAN_MOTION":"15.77545211","APOAPSIS":"338.130","TLE_LINE1":"1 52601U 22052D   22141.91667824 -.00876742  00000-0 -57178-2 0  9994","RCS_SIZE":null,"OBJECT_NAME":"STARLINK-4027","EPHEMERIS_TYPE":"0","BSTAR":"-0.00571780000000","ARG_OF_PERICENTER":"74.8294","TIME_SYSTEM":"UTC","NORAD_CAT_ID":"52601","OBJECT_ID":"2022-052D","CLASSIFICATION_TYPE":"U","PERIOD":"91.281","SEMIMAJOR_AXIS":"6715.535","REF_FRAME":"TEME","ECCENTRICITY":"0.00010870","GP_ID":"204196000"},{"MEAN_MOTION_DDOT":"0.0000000000000","PERIAPSIS":"336.622","INCLINATION":"53.2176","COUNTRY_CODE":"US","DECAY_DATE":null,"REV_AT_EPOCH":"130","TLE_LINE2":"2 52602  53.2176  44.6240 0001074  91.8021 212.3360 15.77565435  1303","RA_OF_ASC_NODE":"44.6240","EPOCH":"2022-05-21T22:00:00.999936","OBJECT_TYPE":"PAYLOAD","MEAN_ELEMENT_THEORY":"SGP4","CENTER_NAME":"EARTH","MEAN_MOTION_DOT":"-0.00876503","MEAN_ANOMALY":"212.3360","SITE":"AFETR","ELEMENT_SET_NO":"999","GP_ID":"204196279","SEMIMAJOR_AXIS":"6715.478","REF_FRAME":"TEME","ECCENTRICITY":"0.00010740","TIME_SYSTEM":"UTC","NORAD_CAT_ID":"52602","OBJECT_ID":"2022-052E","PERIOD":"91.280","CLASSIFICATION_TYPE":"U","EPHEMERIS_TYPE":"0","BSTAR":"-0.00571090000000","ARG_OF_PERICENTER":"91.8021","TLE_LINE1":"1 52602U 22052E   22141.91667824 -.00876503  00000-0 -57109-2 0  9994","OBJECT_NAME":"STARLINK-4012","RCS_SIZE":null,"LAUNCH_DATE":"2022-05-14","MEAN_MOTION":"15.77565435","FILE":"3457577","APOAPSIS":"338.064"},{"MEAN_ANOMALY":"214.0784","SITE":"AFETR","ELEMENT_SET_NO":"999","MEAN_ELEMENT_THEORY":"SGP4","CENTER_NAME":"EARTH","MEAN_MOTION_DOT":"-0.00876636","TLE_LINE2":"2 52603  53.2176  44.6190 0001066  92.1638 214.0784 15.77669696  1300","RA_OF_ASC_NODE":"44.6190","EPOCH":"2022-05-21T22:00:00.999936","OBJECT_TYPE":"PAYLOAD","MEAN_MOTION_DDOT":"0.0000000000000","PERIAPSIS":"336.331","INCLINATION":"53.2176","COUNTRY_CODE":"US","DECAY_DATE":null,"REV_AT_EPOCH":"130","TLE_LINE1":"1 52603U 22052F   22141.91667824 -.00876636  00000-0 -56851-2 0  9995","RCS_SIZE":null,"OBJECT_NAME":"STARLINK-4016","LAUNCH_DATE":"2022-05-14","FILE":"3457577","MEAN_MOTION":"15.77669696","APOAPSIS":"337.763","EPHEMERIS_TYPE":"0","BSTAR":"-0.00568510000000","ARG_OF_PERICENTER":"92.1638","NORAD_CAT_ID":"52603","OBJECT_ID":"2022-052F","TIME_SYSTEM":"UTC","PERIOD":"91.274","CLASSIFICATION_TYPE":"U","GP_ID":"204195898","SEMIMAJOR_AXIS":"6715.182","REF_FRAME":"TEME","ECCENTRICITY":"0.00010660"},{"TLE_LINE1":"1 52604U 22052G   22141.91667824 -.00876580  00000-0 -57008-2 0  9999","OBJECT_NAME":"STARLINK-4013","RCS_SIZE":null,"LAUNCH_DATE":"2022-05-14","MEAN_MOTION":"15.77606825","FILE":"3457577","APOAPSIS":"337.951","EPHEMERIS_TYPE":"0","BSTAR":"-0.00570080000000","ARG_OF_PERICENTER":"88.6594","TIME_SYSTEM":"UTC","NORAD_CAT_ID":"52604","OBJECT_ID":"2022-052G","CLASSIFICATION_TYPE":"U","PERIOD":"91.277","GP_ID":"204196103","SEMIMAJOR_AXIS":"6715.360","REF_FRAME":"TEME","ECCENTRICITY":"0.00010810","MEAN_ANOMALY":"216.3254","SITE":"AFETR","ELEMENT_SET_NO":"999","MEAN_ELEMENT_THEORY":"SGP4","CENTER_NAME":"EARTH","MEAN_MOTION_DOT":"-0.00876580","TLE_LINE2":"2 52604  53.2176  44.6222 0001081  88.6594 216.3254 15.77606825  1307","RA_OF_ASC_NODE":"44.6222","EPOCH":"2022-05-21T22:00:00.999936","OBJECT_TYPE":"PAYLOAD","MEAN_MOTION_DDOT":"0.0000000000000","PERIAPSIS":"336.499","INCLINATION":"53.2176","COUNTRY_CODE":"US","DECAY_DATE":null,"REV_AT_EPOCH":"130"},{"NORAD_CAT_ID":"52605","TIME_SYSTEM":"UTC","OBJECT_ID":"2022-052H","CLASSIFICATION_TYPE":"U","PERIOD":"91.273","GP_ID":"204195679","REF_FRAME":"TEME","SEMIMAJOR_AXIS":"6715.120","ECCENTRICITY":"0.00010810","TLE_LINE1":"1 52605U 22052H   22141.91667824 -.00876628  00000-0 -56794-2 0  9994","RCS_SIZE":null,"OBJECT_NAME":"STARLINK-4000","LAUNCH_DATE":"2022-05-14","APOAPSIS":"337.711","MEAN_MOTION":"15.77691612","FILE":"3457577","BSTAR":"-0.00567940000000","EPHEMERIS_TYPE":"0","ARG_OF_PERICENTER":"91.1913","TLE_LINE2":"2 52605  53.2176  44.6181 0001081  91.1913 215.4597 15.77691612  1304","EPOCH":"2022-05-21T22:00:00.999936","RA_OF_ASC_NODE":"44.6181","OBJECT_TYPE":"PAYLOAD","PERIAPSIS":"336.259","MEAN_MOTION_DDOT":"0.0000000000000","COUNTRY_CODE":"US","INCLINATION":"53.2176","REV_AT_EPOCH":"130","DECAY_DATE":null,"MEAN_ANOMALY":"215.4597","SITE":"AFETR","ELEMENT_SET_NO":"999","MEAN_ELEMENT_THEORY":"SGP4","CENTER_NAME":"EARTH","MEAN_MOTION_DOT":"-0.00876628"},{"MEAN_ANOMALY":"214.7642","SITE":"AFETR","ELEMENT_SET_NO":"999","MEAN_ELEMENT_THEORY":"SGP4","CENTER_NAME":"EARTH","MEAN_MOTION_DOT":"-0.00876591","TLE_LINE2":"2 52606  53.2176  44.6212 0001076  90.6401 214.7642 15.77627823  1306","RA_OF_ASC_NODE":"44.6212","EPOCH":"2022-05-21T22:00:00.999936","OBJECT_TYPE":"PAYLOAD","MEAN_MOTION_DDOT":"0.0000000000000","PERIAPSIS":"336.443","INCLINATION":"53.2176","COUNTRY_CODE":"US","DECAY_DATE":null,"REV_AT_EPOCH":"130","TLE_LINE1":"1 52606U 22052J   22141.91667824 -.00876591  00000-0 -56955-2 0  9993","RCS_SIZE":null,"OBJECT_NAME":"STARLINK-3928","LAUNCH_DATE":"2022-05-14","MEAN_MOTION":"15.77627823","FILE":"3457577","APOAPSIS":"337.888","EPHEMERIS_TYPE":"0","BSTAR":"-0.00569550000000","ARG_OF_PERICENTER":"90.6401","TIME_SYSTEM":"UTC","NORAD_CAT_ID":"52606","OBJECT_ID":"2022-052J","CLASSIFICATION_TYPE":"U","PERIOD":"91.276","GP_ID":"204196220","SEMIMAJOR_AXIS":"6715.301","REF_FRAME":"TEME","ECCENTRICITY":"0.00010760"},{"SEMIMAJOR_AXIS":"6714.948","REF_FRAME":"TEME","ECCENTRICITY":"0.00010790","GP_ID":"204195577","OBJECT_ID":"2022-052K","NORAD_CAT_ID":"52607","TIME_SYSTEM":"UTC","PERIOD":"91.269","CLASSIFICATION_TYPE":"U","EPHEMERIS_TYPE":"0","BSTAR":"-0.00566450000000","ARG_OF_PERICENTER":"92.9955","LAUNCH_DATE":"2022-05-14","FILE":"3457577","MEAN_MOTION":"15.77752021","APOAPSIS":"337.538","TLE_LINE1":"1 52607U 22052K   22141.91667824 -.00876706  00000-0 -56645-2 0  9998","OBJECT_NAME":"STARLINK-3947","RCS_SIZE":null,"INCLINATION":"53.2176","COUNTRY_CODE":"US","DECAY_DATE":null,"REV_AT_EPOCH":"130","MEAN_MOTION_DDOT":"0.0000000000000","PERIAPSIS":"336.089","OBJECT_TYPE":"PAYLOAD","TLE_LINE2":"2 52607  53.2176  44.6154 0001079  92.9955 214.9239 15.77752021  1307","RA_OF_ASC_NODE":"44.6154","EPOCH":"2022-05-21T22:00:00.999936","CENTER_NAME":"EARTH","MEAN_MOTION_DOT":"-0.00876706","MEAN_ELEMENT_THEORY":"SGP4","ELEMENT_SET_NO":"999","MEAN_ANOMALY":"214.9239","SITE":"AFETR"},{"MEAN_MOTION_DDOT":"0.0000000000000","PERIAPSIS":"336.213","DECAY_DATE":null,"REV_AT_EPOCH":"130","INCLINATION":"53.2176","COUNTRY_CODE":"US","RA_OF_ASC_NODE":"44.6176","EPOCH":"2022-05-21T22:00:00.999936","TLE_LINE2":"2 52608  53.2176  44.6176 0001068  95.4675 211.6131 15.77711030  1307","OBJECT_TYPE":"PAYLOAD","MEAN_ELEMENT_THEORY":"SGP4","MEAN_MOTION_DOT":"-0.00876592","CENTER_NAME":"EARTH","SITE":"AFETR","MEAN_ANOMALY":"211.6131","ELEMENT_SET_NO":"999","GP_ID":"204195782","ECCENTRICITY":"0.00010680","SEMIMAJOR_AXIS":"6715.065","REF_FRAME":"TEME","CLASSIFICATION_TYPE":"U","PERIOD":"91.271","NORAD_CAT_ID":"52608","TIME_SYSTEM":"UTC","OBJECT_ID":"2022-052L","ARG_OF_PERICENTER":"95.4675","EPHEMERIS_TYPE":"0","BSTAR":"-0.00567420000000","OBJECT_NAME":"STARLINK-3979","RCS_SIZE":null,"TLE_LINE1":"1 52608U 22052L   22141.91667824 -.00876592  00000-0 -56742-2 0  9990","FILE":"3457577","MEAN_MOTION":"15.77711030","APOAPSIS":"337.647","LAUNCH_DATE":"2022-05-14"}];
